COSMOS 2251 DEB         
1 47074U 93036BYE 26091.79600862  .00004636  00000+0  14125-2 0  9992
2 47074  74.0920 107.2057 0136612 108.4503  67.6059 14.36977665 42629
COSMOS 2251 DEB         
1 47116U 93036BYJ 26088.09039969  .00034652  00000+0  24511-2 0  9993
2 47116  74.0224  23.9331 0017394 111.5766 264.7572 15.04584963611075
COSMOS 2251 DEB         
1 53093U 93036BYP 26094.00478699  .00005096  00000+0  15396-2 0  9990
2 53093  74.0336  93.2656 0019515 157.2450 202.9576 14.42538412193447
