[{"OBJECT_NAME":"COSMOS 2251 DEB","OBJECT_ID":"1993-036BYE","EPOCH":"2026-04-01T19:06:15.144768","MEAN_MOTION":14.36977665,"ECCENTRICITY":0.01366125,"INCLINATION":74.092,"RA_OF_ASC_NODE":107.2057,"ARG_OF_PERICENTER":108.4503,"MEAN_ANOMALY":67.6059,"EPHEMERIS_TYPE":0,"CLASSIFICATION_TYPE":"U","NORAD_CAT_ID":47074,"ELEMENT_SET_NO":999,"REV_AT_EPOCH":4262,"BSTAR":0.0014124809,"MEAN_MOTION_DOT":4.636e-5,"MEAN_MOTION_DDOT":0},{"OBJECT_NAME":"COSMOS 2251 DEB","OBJECT_ID":"1993-036BYJ","EPOCH":"2026-03-29T02:10:10.533216","MEAN_MOTION":15.04584963,"ECCENTRICITY":0.00173949,"INCLINATION":74.0224,"RA_OF_ASC_NODE":23.9331,"ARG_OF_PERICENTER":111.5766,"MEAN_ANOMALY":264.7572,"EPHEMERIS_TYPE":0,"CLASSIFICATION_TYPE":"U","NORAD_CAT_ID":47116,"ELEMENT_SET_NO":999,"REV_AT_EPOCH":61107,"BSTAR":0.0024511362,"MEAN_MOTION_DOT":0.00034652,"MEAN_MOTION_DDOT":0},{"OBJECT_NAME":"COSMOS 2251 DEB","OBJECT_ID":"1993-036BYP","EPOCH":"2026-04-04T00:06:53.595936","MEAN_MOTION":14.42538412,"ECCENTRICITY":0.00195152,"INCLINATION":74.0336,"RA_OF_ASC_NODE":93.2656,"ARG_OF_PERICENTER":157.245,"MEAN_ANOMALY":202.9576,"EPHEMERIS_TYPE":0,"CLASSIFICATION_TYPE":"U","NORAD_CAT_ID":53093,"ELEMENT_SET_NO":999,"REV_AT_EPOCH":19344,"BSTAR":0.0015396317,"MEAN_MOTION_DOT":5.096e-5,"MEAN_MOTION_DDOT":0}]
